CCSDS_OMM_VERS = 2.0
CREATION_DATE  = 
ORIGINATOR     = 

OBJECT_NAME    = STARLINK-36449
OBJECT_ID      = 2026-002D
CENTER_NAME    = EARTH
REF_FRAME      = TEME
TIME_SYSTEM    = UTC
MEAN_ELEMENT_THEORY = SGP/SGP4

EPOCH          = 2026-01-25T12:00:01.999296
MEAN_MOTION    = 15.66998225
ECCENTRICITY   = .0001746
INCLINATION    = 42.9993
RA_OF_ASC_NODE = 211.9112
ARG_OF_PERICENTER = 259.8915
MEAN_ANOMALY   = 49.0357

EPHEMERIS_TYPE = 0
CLASSIFICATION_TYPE = U
NORAD_CAT_ID   = 67308
ELEMENT_SET_NO = 999
REV_AT_EPOCH   = 453
BSTAR          = -.21218E-1
MEAN_MOTION_DOT = -.2039838E-1
MEAN_MOTION_DDOT = 0

CCSDS_OMM_VERS = 2.0
CREATION_DATE  = 
ORIGINATOR     = 

OBJECT_NAME    = STARLINK-36482
OBJECT_ID      = 2026-002E
CENTER_NAME    = EARTH
REF_FRAME      = TEME
TIME_SYSTEM    = UTC
MEAN_ELEMENT_THEORY = SGP/SGP4

EPOCH          = 2026-01-25T12:00:01.999296
MEAN_MOTION    = 15.66995003
ECCENTRICITY   = .0001612
INCLINATION    = 42.9996
RA_OF_ASC_NODE = 211.8880
ARG_OF_PERICENTER = 262.5732
MEAN_ANOMALY   = 55.9379

EPHEMERIS_TYPE = 0
CLASSIFICATION_TYPE = U
NORAD_CAT_ID   = 67309
ELEMENT_SET_NO = 999
REV_AT_EPOCH   = 447
BSTAR          = -.21128E-1
MEAN_MOTION_DOT = -.2031924E-1
MEAN_MOTION_DDOT = 0

CCSDS_OMM_VERS = 2.0
CREATION_DATE  = 
ORIGINATOR     = 

OBJECT_NAME    = STARLINK-36491
OBJECT_ID      = 2026-002F
CENTER_NAME    = EARTH
REF_FRAME      = TEME
TIME_SYSTEM    = UTC
MEAN_ELEMENT_THEORY = SGP/SGP4

EPOCH          = 2026-01-25T12:00:01.999296
MEAN_MOTION    = 15.66994548
ECCENTRICITY   = .0001844
INCLINATION    = 42.9994
RA_OF_ASC_NODE = 211.9222
ARG_OF_PERICENTER = 261.9641
MEAN_ANOMALY   = 43.1293

EPHEMERIS_TYPE = 0
CLASSIFICATION_TYPE = U
NORAD_CAT_ID   = 67310
ELEMENT_SET_NO = 999
REV_AT_EPOCH   = 447
BSTAR          = -.21151E-1
MEAN_MOTION_DOT = -.2034075E-1
MEAN_MOTION_DDOT = 0

CCSDS_OMM_VERS = 2.0
CREATION_DATE  = 
ORIGINATOR     = 

OBJECT_NAME    = STARLINK-36495
OBJECT_ID      = 2026-002G
CENTER_NAME    = EARTH
REF_FRAME      = TEME
TIME_SYSTEM    = UTC
MEAN_ELEMENT_THEORY = SGP/SGP4

EPOCH          = 2026-01-25T12:00:01.999296
MEAN_MOTION    = 15.66996074
ECCENTRICITY   = .000167
INCLINATION    = 42.9992
RA_OF_ASC_NODE = 211.9066
ARG_OF_PERICENTER = 262.0150
MEAN_ANOMALY   = 48.8283

EPHEMERIS_TYPE = 0
CLASSIFICATION_TYPE = U
NORAD_CAT_ID   = 67311
ELEMENT_SET_NO = 999
REV_AT_EPOCH   = 463
BSTAR          = -.21161E-1
MEAN_MOTION_DOT = -.2034864E-1
MEAN_MOTION_DDOT = 0

CCSDS_OMM_VERS = 2.0
CREATION_DATE  = 
ORIGINATOR     = 

OBJECT_NAME    = STARLINK-36485
OBJECT_ID      = 2026-002H
CENTER_NAME    = EARTH
REF_FRAME      = TEME
TIME_SYSTEM    = UTC
MEAN_ELEMENT_THEORY = SGP/SGP4

EPOCH          = 2026-01-25T12:00:01.999296
MEAN_MOTION    = 15.66995109
ECCENTRICITY   = .0001776
INCLINATION    = 42.9995
RA_OF_ASC_NODE = 211.9022
ARG_OF_PERICENTER = 262.4081
MEAN_ANOMALY   = 50.3527

EPHEMERIS_TYPE = 0
CLASSIFICATION_TYPE = U
NORAD_CAT_ID   = 67312
ELEMENT_SET_NO = 999
REV_AT_EPOCH   = 447
BSTAR          = -.21156E-1
MEAN_MOTION_DOT = -.2034425E-1
MEAN_MOTION_DDOT = 0

CCSDS_OMM_VERS = 2.0
CREATION_DATE  = 
ORIGINATOR     = 

OBJECT_NAME    = STARLINK-36445
OBJECT_ID      = 2026-002J
CENTER_NAME    = EARTH
REF_FRAME      = TEME
TIME_SYSTEM    = UTC
MEAN_ELEMENT_THEORY = SGP/SGP4

EPOCH          = 2026-01-25T12:00:01.999296
MEAN_MOTION    = 15.66996319
ECCENTRICITY   = .0001883
INCLINATION    = 42.9990
RA_OF_ASC_NODE = 211.8968
ARG_OF_PERICENTER = 262.8582
MEAN_ANOMALY   = 51.8191

EPHEMERIS_TYPE = 0
CLASSIFICATION_TYPE = U
NORAD_CAT_ID   = 67313
ELEMENT_SET_NO = 999
REV_AT_EPOCH   = 463
BSTAR          = -.21171E-1
MEAN_MOTION_DOT = -.2035926E-1
MEAN_MOTION_DDOT = 0

CCSDS_OMM_VERS = 2.0
CREATION_DATE  = 
ORIGINATOR     = 

OBJECT_NAME    = STARLINK-36476
OBJECT_ID      = 2026-002K
CENTER_NAME    = EARTH
REF_FRAME      = TEME
TIME_SYSTEM    = UTC
MEAN_ELEMENT_THEORY = SGP/SGP4

EPOCH          = 2026-01-25T12:00:01.999296
MEAN_MOTION    = 15.67002385
ECCENTRICITY   = .0001698
INCLINATION    = 42.9992
RA_OF_ASC_NODE = 211.8928
ARG_OF_PERICENTER = 262.1306
MEAN_ANOMALY   = 54.4638

EPHEMERIS_TYPE = 0
CLASSIFICATION_TYPE = U
NORAD_CAT_ID   = 67314
ELEMENT_SET_NO = 999
REV_AT_EPOCH   = 447
BSTAR          = -.21281E-1
MEAN_MOTION_DOT = -.2045432E-1
MEAN_MOTION_DDOT = 0

CCSDS_OMM_VERS = 2.0
CREATION_DATE  = 
ORIGINATOR     = 

OBJECT_NAME    = STARLINK-36463
OBJECT_ID      = 2026-002L
CENTER_NAME    = EARTH
REF_FRAME      = TEME
TIME_SYSTEM    = UTC
MEAN_ELEMENT_THEORY = SGP/SGP4

EPOCH          = 2026-01-25T12:00:01.999296
MEAN_MOTION    = 15.67001220
ECCENTRICITY   = .0001731
INCLINATION    = 42.9993
RA_OF_ASC_NODE = 211.8827
ARG_OF_PERICENTER = 262.9707
MEAN_ANOMALY   = 57.4560

EPHEMERIS_TYPE = 0
CLASSIFICATION_TYPE = U
NORAD_CAT_ID   = 67315
ELEMENT_SET_NO = 999
REV_AT_EPOCH   = 453
BSTAR          = -.21247E-1
MEAN_MOTION_DOT = -.2042498E-1
MEAN_MOTION_DDOT = 0

CCSDS_OMM_VERS = 2.0
CREATION_DATE  = 
ORIGINATOR     = 

OBJECT_NAME    = STARLINK-36461
OBJECT_ID      = 2026-002M
CENTER_NAME    = EARTH
REF_FRAME      = TEME
TIME_SYSTEM    = UTC
MEAN_ELEMENT_THEORY = SGP/SGP4

EPOCH          = 2026-01-25T12:00:01.999296
MEAN_MOTION    = 15.66996479
ECCENTRICITY   = .000171
INCLINATION    = 42.9994
RA_OF_ASC_NODE = 211.8776
ARG_OF_PERICENTER = 260.4220
MEAN_ANOMALY   = 61.9262

EPHEMERIS_TYPE = 0
CLASSIFICATION_TYPE = U
NORAD_CAT_ID   = 67316
ELEMENT_SET_NO = 999
REV_AT_EPOCH   = 463
BSTAR          = -.21205E-1
MEAN_MOTION_DOT = -.2038616E-1
MEAN_MOTION_DDOT = 0

CCSDS_OMM_VERS = 2.0
CREATION_DATE  = 
ORIGINATOR     = 

OBJECT_NAME    = STARLINK-36450
OBJECT_ID      = 2026-002N
CENTER_NAME    = EARTH
REF_FRAME      = TEME
TIME_SYSTEM    = UTC
MEAN_ELEMENT_THEORY = SGP/SGP4

EPOCH          = 2026-01-25T12:00:01.999296
MEAN_MOTION    = 15.66998199
ECCENTRICITY   = .0001815
INCLINATION    = 42.9996
RA_OF_ASC_NODE = 211.8733
ARG_OF_PERICENTER = 264.4697
MEAN_ANOMALY   = 59.7936

EPHEMERIS_TYPE = 0
CLASSIFICATION_TYPE = U
NORAD_CAT_ID   = 67317
ELEMENT_SET_NO = 999
REV_AT_EPOCH   = 463
BSTAR          = -.21217E-1
MEAN_MOTION_DOT = -.2039857E-1
MEAN_MOTION_DDOT = 0

CCSDS_OMM_VERS = 2.0
CREATION_DATE  = 
ORIGINATOR     = 

OBJECT_NAME    = STARLINK-36498
OBJECT_ID      = 2026-002P
CENTER_NAME    = EARTH
REF_FRAME      = TEME
TIME_SYSTEM    = UTC
MEAN_ELEMENT_THEORY = SGP/SGP4

EPOCH          = 2026-01-25T12:00:01.999296
MEAN_MOTION    = 15.66993411
ECCENTRICITY   = .0001741
INCLINATION    = 42.9991
RA_OF_ASC_NODE = 211.8627
ARG_OF_PERICENTER = 262.6787
MEAN_ANOMALY   = 65.4200

EPHEMERIS_TYPE = 0
CLASSIFICATION_TYPE = U
NORAD_CAT_ID   = 67318
ELEMENT_SET_NO = 999
REV_AT_EPOCH   = 453
BSTAR          = -.2114E-1
MEAN_MOTION_DOT = -.2032962E-1
MEAN_MOTION_DDOT = 0

CCSDS_OMM_VERS = 2.0
CREATION_DATE  = 
ORIGINATOR     = 

OBJECT_NAME    = STARLINK-36470
OBJECT_ID      = 2026-002Q
CENTER_NAME    = EARTH
REF_FRAME      = TEME
TIME_SYSTEM    = UTC
MEAN_ELEMENT_THEORY = SGP/SGP4

EPOCH          = 2026-01-25T12:00:01.999296
MEAN_MOTION    = 15.66992755
ECCENTRICITY   = .0001857
INCLINATION    = 42.9995
RA_OF_ASC_NODE = 211.8686
ARG_OF_PERICENTER = 263.6513
MEAN_ANOMALY   = 62.5291

EPHEMERIS_TYPE = 0
CLASSIFICATION_TYPE = U
NORAD_CAT_ID   = 67319
ELEMENT_SET_NO = 999
REV_AT_EPOCH   = 453
BSTAR          = -.21113E-1
MEAN_MOTION_DOT = -.2030736E-1
MEAN_MOTION_DDOT = 0

