STARLINK-36449          
1 67308U 26002D   26025.50002314 -.02039838  00000+0 -21218-1 0  9993
2 67308  42.9993 211.9112 0001746 259.8915  49.0357 15.66998225  4539
STARLINK-36482          
1 67309U 26002E   26025.50002314 -.02031924  00000+0 -21128-1 0  9992
2 67309  42.9996 211.8880 0001612 262.5732  55.9379 15.66995003  4478
STARLINK-36491          
1 67310U 26002F   26025.50002314 -.02034075  00000+0 -21151-1 0  9990
2 67310  42.9994 211.9222 0001844 261.9641  43.1293 15.66994548  4475
STARLINK-36495          
1 67311U 26002G   26025.50002314 -.02034864  00000+0 -21161-1 0  9998
2 67311  42.9992 211.9066 0001670 262.0150  48.8283 15.66996074  4639
STARLINK-36485          
1 67312U 26002H   26025.50002314 -.02034425  00000+0 -21156-1 0  9996
2 67312  42.9995 211.9022 0001776 262.4081  50.3527 15.66995109  4478
STARLINK-36445          
1 67313U 26002J   26025.50002314 -.02035926  00000+0 -21171-1 0  9991
2 67313  42.9990 211.8968 0001883 262.8582  51.8191 15.66996319  4636
STARLINK-36476          
1 67314U 26002K   26025.50002314 -.02045432  00000+0 -21281-1 0  9997
2 67314  42.9992 211.8928 0001698 262.1306  54.4638 15.67002385  4475
STARLINK-36463          
1 67315U 26002L   26025.50002314 -.02042498  00000+0 -21247-1 0  9999
2 67315  42.9993 211.8827 0001731 262.9707  57.4560 15.67001220  4537
STARLINK-36461          
1 67316U 26002M   26025.50002314 -.02038616  00000+0 -21205-1 0  9991
2 67316  42.9994 211.8776 0001710 260.4220  61.9262 15.66996479  4630
STARLINK-36450          
1 67317U 26002N   26025.50002314 -.02039857  00000+0 -21217-1 0  9993
2 67317  42.9996 211.8733 0001815 264.4697  59.7936 15.66998199  4638
STARLINK-36498          
1 67318U 26002P   26025.50002314 -.02032962  00000+0 -21140-1 0  9999
2 67318  42.9991 211.8627 0001741 262.6787  65.4200 15.66993411  4533
STARLINK-36470          
1 67319U 26002Q   26025.50002314 -.02030736  00000+0 -21113-1 0  9997
2 67319  42.9995 211.8686 0001857 263.6513  62.5291 15.66992755  4537
